0 TEVEL 1
1 51013U 22002AF  23072.62916644  .00034350  00000-0  15513-2 0  9990
2 51013  97.4441 140.4307 0008749 201.8537 316.7736 15.20857460 64218
0 ZHUHAI-1 01
1 42761U 17034D   23072.59195358  .00016500  00000-0  86486-3 0  9991
2 42761  43.0176 284.9383 0011496 212.2004 246.9968 15.15485680317134
0 XW-2D
1 40907U 15049J   23072.57760398  .00026826  00000-0  10698-2 0  9998
2 40907  97.4958  79.8695 0013258 126.2307 329.0000 15.25084905413896
0 TEVEL 4
1 51063U 22002CH  23072.56652619  .00034489  00000-0  15600-2 0  9997
2 51063  97.4458 140.4279 0008726 199.9788 265.9986 15.20801917 64206
0 XW-2F
1 40910U 15049M   23072.56520325  .00046062  00000-0  14982-2 0  9999
2 40910  97.4696  84.5231 0013080 103.3646 355.4860 15.31657173414228
0 XW-2B
1 40911U 15049N   23072.56141068  .00026459  00000-0  10609-2 0  9993
2 40911  97.4938  80.3456 0013132 127.3758 330.9039 15.24906210413775
0 LILACSAT 2
1 40908U 15049K   23072.53205991  .00012029  00000-0  58739-3 0  9997
2 40908  97.5259  75.9455 0015147 156.1343 303.1703 15.18317770413270
0 XW-2C
1 40906U 15049H   23072.52978848  .00022714  00000-0  94518-3 0  9999
2 40906  97.4976  79.5116 0013793 132.0112  26.1674 15.23681243413813
0 ZHUHAI-1 02
1 42759U 17034B   23072.50314170  .00017608  00000-0  92391-3 0  9996
2 42759  43.0174 286.8608 0010998 210.2885 227.2742 15.15416278317118
0 TEVEL 7
1 51062U 22002CG  23072.50096376  .00034607  00000-0  15638-2 0  9995
2 51062  97.4456 140.3722 0008870 200.3040 285.2129 15.20832382 64195
0 XW-2E
1 40909U 15049L   23072.48580627  .00046522  00000-0  14861-2 0  9996
2 40909  97.4611  85.2332 0012737 102.6791  53.3653 15.32239655414455
0 TEVEL 5
1 50998U 22002Q   23072.47587181  .00035635  00000-0  15764-2 0  9999
2 50998  97.4444 140.6067 0010225 198.3886 287.2588 15.21544678 64218
0 XW-2A
1 40903U 15049E   23072.46793034  .00233025  00000-0  10670-2 0  9996
2 40903  97.1300 139.1845 0006650 189.4577 227.9281 15.83070063421266
0 OSCAR 7
1  7530U 74089B   23072.44701236 -.00000015  00000-0  19771-3 0  9999
2  7530 101.9410  58.5024 0011913 246.4516 266.3714 12.53662181211413
0 JAS 2
1 24278U 96046B   23072.43522921  .00000075  00000-0  11470-3 0  9998
2 24278  98.5217  64.0697 0349363 305.4130  51.4844 13.53137806312237
0 TEVEL 8
1 50989U 22002F   23072.43428969  .00034585  00000-0  15636-2 0  9994
2 50989  97.4465 140.3313 0008591 202.2935 288.4011 15.20819422 64186
0 FUNCUBE 1
1 39444U 13066AE  23072.38689718  .00007850  00000-0  89118-3 0  9994
2 39444  97.6615  40.0086 0052614 227.3145 132.3633 14.85558516502006
0 CSS (TIANHE-1)
1 48274U 21035A   23072.30813627  .00040506  00000-0  44718-3 0  9992
2 48274  41.4750  20.7302 0001429  89.2418  39.9817 15.62295218106836
0 OBJECT C
1 54684U 22167C   23072.25454002  .00023957  00000-0  14216-2 0  9993
2 54684  97.5452 210.7567 0013736 304.3522 173.9116 15.11252351 14175
0 XW-4 (CAS-10)
1 54816U 21035C   23072.25043904  .02330371  77621-5  12756-2 0  9996
2 54816  41.5077   9.4914 0017840 162.4710 197.7314 16.18206266 13316
0 DIWATA 2B
1 43678U 18084H   23072.23108792  .00004812  00000-0  46810-3 0  9992
2 43678  98.0038 214.3829 0010766 116.8645 243.3668 14.92999277237944
0 XW-3 (CAS 9)
1 50466U 21131B   23072.20433448  .00001477  00000-0  49537-3 0  9991
2 50466  98.5560 154.0488 0005440  76.8828 283.2966 14.38742339 63557
0 AO-92
1 43137U 18004AC  23072.19987688  .00041218  00000-0  10657-2 0  9998
2 43137  97.3356 150.8100 0007235 127.4365 232.7540 15.38960186287505
0 ISS (ZARYA)
1 25544U 98067A   23072.18799488  .00019339  00000-0  35521-3 0  9992
2 25544  51.6407  84.0968 0005877  78.5186 329.4010 15.49238013386903
0 TEVEL 2
1 51069U 22002CP  23072.13984339  .00034481  00000-0  15570-2 0  9991
2 51069  97.4452 139.9680 0008794 203.8764 186.6297 15.20860136 64144
0 TEVEL 3
1 50988U 22002E   23072.13797507  .00034451  00000-0  15556-2 0  9990
2 50988  97.4447 139.9896 0008901 203.8464 186.7300 15.20859083 64148
0 JY1SAT
1 43803U 18099AX  23072.13706278  .00010597  00000-0  86467-3 0  9999
2 43803  97.5862 137.2139 0016291  83.9444 276.3635 14.99510531233293
0 TEVEL 6
1 50999U 22002R   23072.12827546  .00035591  00000-0  15753-2 0  9993
2 50999  97.4443 140.2585 0010244 199.7283 190.4534 15.21526201 64168
0 AO-91
1 43017U 17073E   23072.12594145  .00012472  00000-0  88732-3 0  9995
2 43017  97.6440 320.2803 0239453  26.4772 334.8446 14.84464753286924
0 AO-95
1 43770U 18099N   23072.12112019  .00009863  00000-0  82401-3 0  9993
2 43770  97.5841 136.2652 0015395  95.7863 264.5116 14.98627157233219
0 UVSQ-SAT
1 47438U 21006AB  23072.09698238  .00023379  00000-0  10517-2 0  9994
2 47438  97.3981 130.7428 0011457  65.0244 295.2180 15.21047137118029
0 EYESAT A
1 22825U 93061C   23072.08904735  .00000292  00000-0  13016-3 0  9995
2 22825  98.8552 113.3705 0008233 356.0801   4.0314 14.30263164536823
0 NEXUS
1 43937U 19003F   23072.03269355  .00054242  00000-0  12369-2 0  9996
2 43937  97.1015 101.0563 0013523 263.5814  96.3894 15.42635961231175
0 SAUDISAT 1C
1 27607U 02058C   23071.96146781  .00004086  00000-0  57145-3 0  9995
2 27607  64.5556 199.8653 0076560 243.6448 115.6780 14.76919471 88228
0 ES'HAIL 2
1 43700U 18090A   23071.90188587  .00000150  00000-0  00000-0 0  9997
2 43700   0.0205 163.4785 0001055 207.1430 150.1122  1.00271238 15726
0 LAPAN A2
1 40931U 15052B   23071.81176030  .00002260  00000-0  22317-3 0  9997
2 40931   5.9981  54.4424 0013228   6.2016 353.8598 14.77092774403089
0 NAYIF 1
1 42017U 17008BX  23071.73470513  .00100464  00000-0  15825-2 0  9991
2 42017  97.2263 140.7485 0001930   2.2860 357.8402 15.53217840338385
0 BREEZE-KM R/B
1 44909U 19096E   23071.43403479  .00000019  00000-0  27269-4 0  9998
2 44909  82.5202  52.2262 0218429  53.3639 308.7329 12.79718935149784
0 MT-CUBE-2
1 53106U 22080B   23066.10611744 -.00000003  00000-0  00000-0 0  9992
2 53106  70.1818 355.1858 0008360 210.1011 149.9169  6.42557127 15194
